{"fetched_at":"2026-07-19T17:31:55.792Z","source":"https://celestrak.org/NORAD/elements/gp.php?NAME=SPACEMOBILE&FORMAT=JSON","constellation":"ast-spacemobile","records":[{"OBJECT_NAME":"SPACEMOBILE-003","OBJECT_ID":"2024-163A","EPOCH":"2026-07-19T06:54:50.505120","CLASSIFICATION_TYPE":"U","MEAN_MOTION":15.20717853,"ECCENTRICITY":0.00043295,"INCLINATION":52.9672,"RA_OF_ASC_NODE":161.8218,"ARG_OF_PERICENTER":207.1995,"MEAN_ANOMALY":152.8773,"EPHEMERIS_TYPE":0,"NORAD_CAT_ID":61045,"ELEMENT_SET_NO":999,"REV_AT_EPOCH":10265,"BSTAR":0.000079094198,"MEAN_MOTION_DOT":0.00001436,"MEAN_MOTION_DDOT":0},{"OBJECT_NAME":"SPACEMOBILE-005","OBJECT_ID":"2024-163B","EPOCH":"2026-07-19T04:56:19.932000","CLASSIFICATION_TYPE":"U","MEAN_MOTION":15.20724362,"ECCENTRICITY":0.00085199,"INCLINATION":52.9754,"RA_OF_ASC_NODE":162.1539,"ARG_OF_PERICENTER":208.1551,"MEAN_ANOMALY":151.8984,"EPHEMERIS_TYPE":0,"NORAD_CAT_ID":61046,"ELEMENT_SET_NO":999,"REV_AT_EPOCH":10263,"BSTAR":0.0001244598,"MEAN_MOTION_DOT":0.00002447,"MEAN_MOTION_DDOT":0},{"OBJECT_NAME":"SPACEMOBILE-001","OBJECT_ID":"2024-163C","EPOCH":"2026-07-18T06:48:59.718528","CLASSIFICATION_TYPE":"U","MEAN_MOTION":15.20703424,"ECCENTRICITY":0.00070948,"INCLINATION":52.9715,"RA_OF_ASC_NODE":166.1008,"ARG_OF_PERICENTER":203.8926,"MEAN_ANOMALY":156.174,"EPHEMERIS_TYPE":0,"NORAD_CAT_ID":61047,"ELEMENT_SET_NO":999,"REV_AT_EPOCH":10249,"BSTAR":0.000013734528,"MEAN_MOTION_DOT":-2.2e-7,"MEAN_MOTION_DDOT":0},{"OBJECT_NAME":"SPACEMOBILE-002","OBJECT_ID":"2024-163D","EPOCH":"2026-07-19T01:21:30.545856","CLASSIFICATION_TYPE":"U","MEAN_MOTION":15.20617345,"ECCENTRICITY":0.00047801,"INCLINATION":52.979,"RA_OF_ASC_NODE":162.5913,"ARG_OF_PERICENTER":213.437,"MEAN_ANOMALY":146.6323,"EPHEMERIS_TYPE":0,"NORAD_CAT_ID":61048,"ELEMENT_SET_NO":999,"REV_AT_EPOCH":10261,"BSTAR":-0.00030577873,"MEAN_MOTION_DOT":-0.00007112,"MEAN_MOTION_DDOT":0},{"OBJECT_NAME":"SPACEMOBILE-004","OBJECT_ID":"2024-163E","EPOCH":"2026-07-18T07:35:11.622336","CLASSIFICATION_TYPE":"U","MEAN_MOTION":15.20746753,"ECCENTRICITY":0.00057895,"INCLINATION":52.9719,"RA_OF_ASC_NODE":165.7693,"ARG_OF_PERICENTER":237.6341,"MEAN_ANOMALY":122.4093,"EPHEMERIS_TYPE":0,"NORAD_CAT_ID":61049,"ELEMENT_SET_NO":999,"REV_AT_EPOCH":10250,"BSTAR":0.00048446837,"MEAN_MOTION_DOT":0.00010492,"MEAN_MOTION_DDOT":0},{"OBJECT_NAME":"SPACEMOBILE-006","OBJECT_ID":"2025-309A","EPOCH":"2026-07-19T05:24:26.566272","CLASSIFICATION_TYPE":"U","MEAN_MOTION":15.18666511,"ECCENTRICITY":0.0009705,"INCLINATION":52.9939,"RA_OF_ASC_NODE":184.8715,"ARG_OF_PERICENTER":229.1776,"MEAN_ANOMALY":130.8377,"EPHEMERIS_TYPE":0,"NORAD_CAT_ID":67232,"ELEMENT_SET_NO":999,"REV_AT_EPOCH":3146,"BSTAR":0.000089101153,"MEAN_MOTION_DOT":0.0000155,"MEAN_MOTION_DDOT":0},{"OBJECT_NAME":"SPACEMOBILE-008","OBJECT_ID":"2026-139A","EPOCH":"2026-07-19T01:13:00.193152","CLASSIFICATION_TYPE":"U","MEAN_MOTION":15.12805551,"ECCENTRICITY":0.00052157,"INCLINATION":52.9951,"RA_OF_ASC_NODE":117.9031,"ARG_OF_PERICENTER":65.625,"MEAN_ANOMALY":294.5285,"EPHEMERIS_TYPE":0,"NORAD_CAT_ID":69589,"ELEMENT_SET_NO":999,"REV_AT_EPOCH":480,"BSTAR":0.00003819613,"MEAN_MOTION_DOT":0.00000377,"MEAN_MOTION_DDOT":0},{"OBJECT_NAME":"SPACEMOBILE-009","OBJECT_ID":"2026-139B","EPOCH":"2026-07-19T04:26:30.092064","CLASSIFICATION_TYPE":"U","MEAN_MOTION":15.12699108,"ECCENTRICITY":0.00054807,"INCLINATION":52.9942,"RA_OF_ASC_NODE":117.3113,"ARG_OF_PERICENTER":61.856,"MEAN_ANOMALY":298.2984,"EPHEMERIS_TYPE":0,"NORAD_CAT_ID":69590,"ELEMENT_SET_NO":999,"REV_AT_EPOCH":482,"BSTAR":0.00003659745,"MEAN_MOTION_DOT":0.00000347,"MEAN_MOTION_DDOT":0},{"OBJECT_NAME":"SPACEMOBILE-010","OBJECT_ID":"2026-139C","EPOCH":"2026-07-19T01:21:18.277920","CLASSIFICATION_TYPE":"U","MEAN_MOTION":15.12537961,"ECCENTRICITY":0.00054473,"INCLINATION":52.9947,"RA_OF_ASC_NODE":117.9362,"ARG_OF_PERICENTER":54.3498,"MEAN_ANOMALY":305.7999,"EPHEMERIS_TYPE":0,"NORAD_CAT_ID":69591,"ELEMENT_SET_NO":999,"REV_AT_EPOCH":481,"BSTAR":0.000077627205,"MEAN_MOTION_DOT":0.00001068,"MEAN_MOTION_DDOT":0}]}
